[{"OBJECT_NAME":"EINSTEIN PROBE","OBJECT_ID":"2024-007A","EPOCH":"2026-03-09T14:28:05.763072","MEAN_MOTION":15.01336938,"ECCENTRICITY":0.0009522,"INCLINATION":28.998,"RA_OF_ASC_NODE":140.909,"ARG_OF_PERICENTER":248.3814,"MEAN_ANOMALY":111.577,"EPHEMERIS_TYPE":0,"CLASSIFICATION_TYPE":"U","NORAD_CAT_ID":58753,"ELEMENT_SET_NO":999,"REV_AT_EPOCH":11858,"BSTAR":0.00031977,"MEAN_MOTION_DOT":4.372e-5,"MEAN_MOTION_DDOT":0},{"OBJECT_NAME":"UM5-EOSAT","OBJECT_ID":"2024-149CR","EPOCH":"2026-03-09T17:21:09.122400","MEAN_MOTION":15.00894746,"ECCENTRICITY":0.00087192,"INCLINATION":97.6855,"RA_OF_ASC_NODE":148.6787,"ARG_OF_PERICENTER":107.8964,"MEAN_ANOMALY":252.3212,"EPHEMERIS_TYPE":0,"CLASSIFICATION_TYPE":"U","NORAD_CAT_ID":60555,"ELEMENT_SET_NO":999,"REV_AT_EPOCH":8529,"BSTAR":0.00036077282,"MEAN_MOTION_DOT":4.537e-5,"MEAN_MOTION_DDOT":0}]
